{
  "type": "FeatureCollection",
  "features": [
    {
      "type": "Feature",
      "properties": {
        "norad_id": 28890,
        "name": "BEIJING 1",
        "group": "dmc",
        "lat": 53.92291327058123,
        "lon": -40.756259817489166,
        "alt_km": 666.9392243739148,
        "timestamp": "2025-12-26T04:40:05.454764+00:00",
        "meta_object_name": "BEIJING 1",
        "meta_object_id": "2005-043A",
        "meta_epoch": "2025-12-25T23:10:34.351968",
        "meta_mean_motion": 14.6337783,
        "meta_eccentricity": 0.00158315,
        "meta_inclination": 98.2664,
        "meta_ra_of_asc_node": 127.5046,
        "meta_arg_of_pericenter": 102.3973,
        "meta_mean_anomaly": 257.9002,
        "meta_ephemeris_type": 0,
        "meta_classification_type": "U",
        "meta_norad_cat_id": 28890,
        "meta_element_set_no": 999,
        "meta_rev_at_epoch": 7531,
        "meta_bstar": 9.0116198e-05,
        "meta_mean_motion_dot": 4.18e-06,
        "meta_mean_motion_ddot": 0,
        "tle_line1": "1 28890U 05043A   25359.96567537  .00000418  00000+0  90116-4 0  9994",
        "tle_line2": "2 28890  98.2664 127.5046 0015831 102.3973 257.9002 14.63377830 75315"
      },
      "geometry": {
        "type": "Point",
        "coordinates": [
          -40.756259817489166,
          53.92291327058123
        ]
      }
    },
    {
      "type": "Feature",
      "properties": {
        "norad_id": 33320,
        "name": "HUANJING 1A (HJ-1A)",
        "group": "dmc",
        "lat": 40.866979907288716,
        "lon": -18.75141584013489,
        "alt_km": 606.7023657282425,
        "timestamp": "2025-12-26T04:40:05.454789+00:00",
        "meta_object_name": "HUANJING 1A (HJ-1A)",
        "meta_object_id": "2008-041A",
        "meta_epoch": "2025-12-25T23:37:35.715360",
        "meta_mean_motion": 14.83433678,
        "meta_eccentricity": 0.00191297,
        "meta_inclination": 97.6552,
        "meta_ra_of_asc_node": 347.73,
        "meta_arg_of_pericenter": 351.9535,
        "meta_mean_anomaly": 8.137,
        "meta_ephemeris_type": 0,
        "meta_classification_type": "U",
        "meta_norad_cat_id": 33320,
        "meta_element_set_no": 999,
        "meta_rev_at_epoch": 93272,
        "meta_bstar": 0.00018524386,
        "meta_mean_motion_dot": 1.474e-05,
        "meta_mean_motion_ddot": 0,
        "tle_line1": "1 33320U 08041A   25359.98444115  .00001474  00000+0  18524-3 0  9992",
        "tle_line2": "2 33320  97.6552 347.7300 0019129 351.9535   8.1370 14.83433678932723"
      },
      "geometry": {
        "type": "Point",
        "coordinates": [
          -18.75141584013489,
          40.866979907288716
        ]
      }
    },
    {
      "type": "Feature",
      "properties": {
        "norad_id": 33321,
        "name": "HUANJING 1B (HJ-1B)",
        "group": "dmc",
        "lat": -53.65912065550256,
        "lon": 161.07877632571456,
        "alt_km": 651.903507899825,
        "timestamp": "2025-12-26T04:40:05.454805+00:00",
        "meta_object_name": "HUANJING 1B (HJ-1B)",
        "meta_object_id": "2008-041B",
        "meta_epoch": "2025-12-25T22:45:23.995296",
        "meta_mean_motion": 14.82857109,
        "meta_eccentricity": 0.0037654,
        "meta_inclination": 97.6409,
        "meta_ra_of_asc_node": 351.3576,
        "meta_arg_of_pericenter": 33.9078,
        "meta_mean_anomaly": 326.4532,
        "meta_ephemeris_type": 0,
        "meta_classification_type": "U",
        "meta_norad_cat_id": 33321,
        "meta_element_set_no": 999,
        "meta_rev_at_epoch": 93273,
        "meta_bstar": 0.00023111722,
        "meta_mean_motion_dot": 1.843e-05,
        "meta_mean_motion_ddot": 0,
        "tle_line1": "1 33321U 08041B   25359.94819439  .00001843  00000+0  23112-3 0  9993",
        "tle_line2": "2 33321  97.6409 351.3576 0037654  33.9078 326.4532 14.82857109932738"
      },
      "geometry": {
        "type": "Point",
        "coordinates": [
          161.07877632571456,
          -53.65912065550256
        ]
      }
    },
    {
      "type": "Feature",
      "properties": {
        "norad_id": 33446,
        "name": "YAOGAN-4",
        "group": "dmc",
        "lat": 39.786057152394065,
        "lon": 116.81986713501665,
        "alt_km": 624.2227243138723,
        "timestamp": "2025-12-26T04:40:05.454817+00:00",
        "meta_object_name": "YAOGAN-4",
        "meta_object_id": "2008-061A",
        "meta_epoch": "2025-12-25T18:19:17.173344",
        "meta_mean_motion": 14.8271976,
        "meta_eccentricity": 0.00129661,
        "meta_inclination": 97.9198,
        "meta_ra_of_asc_node": 289.7359,
        "meta_arg_of_pericenter": 277.0684,
        "meta_mean_anomaly": 82.9055,
        "meta_ephemeris_type": 0,
        "meta_classification_type": "U",
        "meta_norad_cat_id": 33446,
        "meta_element_set_no": 999,
        "meta_rev_at_epoch": 91996,
        "meta_bstar": 0.00018510552,
        "meta_mean_motion_dot": 1.442e-05,
        "meta_mean_motion_ddot": 0,
        "tle_line1": "1 33446U 08061A   25359.76339321  .00001442  00000+0  18511-3 0  9992",
        "tle_line2": "2 33446  97.9198 289.7359 0012966 277.0684  82.9055 14.82719760919964"
      },
      "geometry": {
        "type": "Point",
        "coordinates": [
          116.81986713501665,
          39.786057152394065
        ]
      }
    },
    {
      "type": "Feature",
      "properties": {
        "norad_id": 35681,
        "name": "DEIMOS-1",
        "group": "dmc",
        "lat": -73.21865792648272,
        "lon": -46.54465477787551,
        "alt_km": 654.2132497426637,
        "timestamp": "2025-12-26T04:40:05.454829+00:00",
        "meta_object_name": "DEIMOS-1",
        "meta_object_id": "2009-041A",
        "meta_epoch": "2025-12-25T22:37:51.672288",
        "meta_mean_motion": 14.74971621,
        "meta_eccentricity": 0.00024534,
        "meta_inclination": 97.7158,
        "meta_ra_of_asc_node": 159.9324,
        "meta_arg_of_pericenter": 59.8125,
        "meta_mean_anomaly": 300.3327,
        "meta_ephemeris_type": 0,
        "meta_classification_type": "U",
        "meta_norad_cat_id": 35681,
        "meta_element_set_no": 999,
        "meta_rev_at_epoch": 88134,
        "meta_bstar": 0.00010562581,
        "meta_mean_motion_dot": 6.63e-06,
        "meta_mean_motion_ddot": 0,
        "tle_line1": "1 35681U 09041A   25359.94295917  .00000663  00000+0  10563-3 0  9999",
        "tle_line2": "2 35681  97.7158 159.9324 0002453  59.8125 300.3327 14.74971621881343"
      },
      "geometry": {
        "type": "Point",
        "coordinates": [
          -46.54465477787551,
          -73.21865792648272
        ]
      }
    },
    {
      "type": "Feature",
      "properties": {
        "norad_id": 35683,
        "name": "UK-DMC 2",
        "group": "dmc",
        "lat": -56.43606257508996,
        "lon": 146.73120944079744,
        "alt_km": 651.1126804957366,
        "timestamp": "2025-12-26T04:40:05.454840+00:00",
        "meta_object_name": "UK-DMC 2",
        "meta_object_id": "2009-041C",
        "meta_epoch": "2025-12-25T22:25:03.889056",
        "meta_mean_motion": 14.75648623,
        "meta_eccentricity": 0.00015781,
        "meta_inclination": 97.8573,
        "meta_ra_of_asc_node": 134.4652,
        "meta_arg_of_pericenter": 91.877,
        "meta_mean_anomaly": 268.2621,
        "meta_ephemeris_type": 0,
        "meta_classification_type": "U",
        "meta_norad_cat_id": 35683,
        "meta_element_set_no": 999,
        "meta_rev_at_epoch": 88101,
        "meta_bstar": 0.0001572623,
        "meta_mean_motion_dot": 1.025e-05,
        "meta_mean_motion_ddot": 0,
        "tle_line1": "1 35683U 09041C   25359.93407279  .00001025  00000+0  15726-3 0  9995",
        "tle_line2": "2 35683  97.8573 134.4652 0001578  91.8770 268.2621 14.75648623881015"
      },
      "geometry": {
        "type": "Point",
        "coordinates": [
          146.73120944079744,
          -56.43606257508996
        ]
      }
    },
    {
      "type": "Feature",
      "properties": {
        "norad_id": 40715,
        "name": "DMC3-FM1",
        "group": "dmc",
        "lat": 71.97603652262845,
        "lon": 71.35614212447993,
        "alt_km": 607.8776779175787,
        "timestamp": "2025-12-26T04:40:05.454851+00:00",
        "meta_object_name": "DMC3-FM1",
        "meta_object_id": "2015-032A",
        "meta_epoch": "2025-12-25T21:43:27.616800",
        "meta_mean_motion": 14.85461477,
        "meta_eccentricity": 0.0004085,
        "meta_inclination": 97.6679,
        "meta_ra_of_asc_node": 226.6177,
        "meta_arg_of_pericenter": 266.1617,
        "meta_mean_anomaly": 93.9132,
        "meta_ephemeris_type": 0,
        "meta_classification_type": "U",
        "meta_norad_cat_id": 40715,
        "meta_element_set_no": 999,
        "meta_rev_at_epoch": 56418,
        "meta_bstar": 9.2727768e-05,
        "meta_mean_motion_dot": 7.48e-06,
        "meta_mean_motion_ddot": 0,
        "tle_line1": "1 40715U 15032A   25359.90518075  .00000748  00000+0  92728-4 0  9997",
        "tle_line2": "2 40715  97.6679 226.6177 0004085 266.1617  93.9132 14.85461477564188"
      },
      "geometry": {
        "type": "Point",
        "coordinates": [
          71.35614212447993,
          71.97603652262845
        ]
      }
    },
    {
      "type": "Feature",
      "properties": {
        "norad_id": 40716,
        "name": "DMC3-FM2",
        "group": "dmc",
        "lat": -13.740306538867241,
        "lon": -129.76087142628995,
        "alt_km": 615.9100700736653,
        "timestamp": "2025-12-26T04:40:05.454862+00:00",
        "meta_object_name": "DMC3-FM2",
        "meta_object_id": "2015-032B",
        "meta_epoch": "2025-12-25T22:15:49.851648",
        "meta_mean_motion": 14.85465049,
        "meta_eccentricity": 0.00045805,
        "meta_inclination": 97.6735,
        "meta_ra_of_asc_node": 228.0927,
        "meta_arg_of_pericenter": 272.49,
        "meta_mean_anomaly": 87.5791,
        "meta_ephemeris_type": 0,
        "meta_classification_type": "U",
        "meta_norad_cat_id": 40716,
        "meta_element_set_no": 999,
        "meta_rev_at_epoch": 56418,
        "meta_bstar": 0.00016671421,
        "meta_mean_motion_dot": 1.386e-05,
        "meta_mean_motion_ddot": 0,
        "tle_line1": "1 40716U 15032B   25359.92766032  .00001386  00000+0  16671-3 0  9999",
        "tle_line2": "2 40716  97.6735 228.0927 0004580 272.4900  87.5791 14.85465049564185"
      },
      "geometry": {
        "type": "Point",
        "coordinates": [
          -129.76087142628995,
          -13.740306538867241
        ]
      }
    },
    {
      "type": "Feature",
      "properties": {
        "norad_id": 40717,
        "name": "DMC3-FM3",
        "group": "dmc",
        "lat": -49.453773119883294,
        "lon": 40.917139037003984,
        "alt_km": 617.1050972350686,
        "timestamp": "2025-12-26T04:40:05.454872+00:00",
        "meta_object_name": "DMC3-FM3",
        "meta_object_id": "2015-032C",
        "meta_epoch": "2025-12-25T22:47:08.236896",
        "meta_mean_motion": 14.8545223,
        "meta_eccentricity": 0.00038598,
        "meta_inclination": 97.6793,
        "meta_ra_of_asc_node": 229.7555,
        "meta_arg_of_pericenter": 274.0379,
        "meta_mean_anomaly": 86.0395,
        "meta_ephemeris_type": 0,
        "meta_classification_type": "U",
        "meta_norad_cat_id": 40717,
        "meta_element_set_no": 999,
        "meta_rev_at_epoch": 56419,
        "meta_bstar": 0.00018539179,
        "meta_mean_motion_dot": 1.547e-05,
        "meta_mean_motion_ddot": 0,
        "tle_line1": "1 40717U 15032C   25359.94940089  .00001547  00000+0  18539-3 0  9992",
        "tle_line2": "2 40717  97.6793 229.7555 0003859 274.0379  86.0395 14.85452230564194"
      },
      "geometry": {
        "type": "Point",
        "coordinates": [
          40.917139037003984,
          -49.453773119883294
        ]
      }
    }
  ]
}